NORAD_CAT_ID,OBJECT_NAME,OBJECT_TYPE,EPOCH,MEAN_MOTION,ECCENTRICITY,INCLINATION,RA_OF_ASC_NODE,ARG_OF_PERICENTER,MEAN_ANOMALY,BSTAR,MEAN_MOTION_DOT,MEAN_MOTION_DDOT,TLE_LINE0,TLE_LINE1,TLE_LINE2,SEMIMAJOR_AXIS,PERIOD,APOGEE,PERIGEE,DECAYED
53015.0,STARLINK-4262,PAYLOAD,2023-09-12 03:27:38,15.08842337,0.0001219,53.2169,207.2277,89.3426,270.7706,0.00013946,1.932e-05,0.0,0 STARLINK-4262,1 53015U 22076AF  23255.14420070  .00001932  00000-0  13946-3 0  9997,2 53015  53.2169 207.2277 0001219  89.3426 270.7706 15.08842337 66141,6917.873,95.437,540.582,538.895,0.0
53015.0,STARLINK-4262,PAYLOAD,2023-09-13 06:29:11,15.08855659,0.0001265,53.2156,202.1728,88.1069,272.0068,0.00023838,3.51e-05,0.0,0 STARLINK-4262,1 53015U 22076AF  23256.27027588  .00003510  00000-0  23838-3 0  9994,2 53015  53.2156 202.1728 0001265  88.1069 272.0068 15.08855659 66319,6917.833,95.437,540.573,538.822,0.0
53015.0,STARLINK-4262,PAYLOAD,2023-09-13 20:47:40,15.08837439,0.0001064,53.2163,199.4975,89.6668,270.4446,-1.1489e-07,-2.9e-06,0.0,0 STARLINK-4262,1 53015U 22076AF  23256.86644396 -.00000290  00000-0 -11489-6 0  9997,2 53015  53.2163 199.4975 0001064  89.6668 270.4446 15.08837439 65932,6917.888,95.438,540.489,539.017,0.0
53015.0,STARLINK-4262,PAYLOAD,2023-09-14 01:33:49,15.08843236,0.0001191,53.2166,198.6062,91.6371,268.4757,7.2233e-05,8.62e-06,0.0,0 STARLINK-4262,1 53015U 22076AF  23257.06516095  .00000862  00000-0  72233-4 0  9999,2 53015  53.2166 198.6062 0001191  91.6371 268.4757 15.08843236 66438,6917.87,95.437,540.559,538.912,0.0
53015.0,STARLINK-4262,PAYLOAD,2023-09-14 06:19:58,15.0884796,0.0001411,53.2164,197.7124,106.792,253.3227,0.00013711,1.895e-05,0.0,0 STARLINK-4262,1 53015U 22076AF  23257.26387716  .00001895  00000-0  13711-3 0  9999,2 53015  53.2164 197.7124 0001411 106.7920 253.3227 15.08847960 65991,6917.856,95.437,540.697,538.745,0.0
53015.0,STARLINK-4262,PAYLOAD,2023-09-14 20:38:28,15.08829234,0.0001375,53.2164,195.0369,94.0741,266.0408,-0.00020994,-3.627e-05,0.0,0 STARLINK-4262,1 53015U 22076AF  23257.86004966 -.00003627  00000-0 -20994-3 0  9996,2 53015  53.2164 195.0369 0001375  94.0741 266.0408 15.08829234 66089,6917.913,95.438,540.73,538.827,0.0
53015.0,STARLINK-4262,PAYLOAD,2023-09-15 03:00:00,15.08829397,0.0001318,53.2165,193.8477,97.1531,262.9611,-0.0001701,-2.993e-05,0.0,0 STARLINK-4262,1 53015U 22076AF  23258.12501114 -.00002993  00000-0 -17010-3 0  9993,2 53015  53.2165 193.8477 0001318  97.1531 262.9611 15.08829397 66591,6917.913,95.438,540.69,538.866,0.0
53015.0,STARLINK-4262,PAYLOAD,2023-09-15 04:35:24,15.08831704,0.0001342,53.2165,193.55,96.9176,263.1969,-0.00011191,-2.068e-05,0.0,0 STARLINK-4262,1 53015U 22076AF  23258.19125071 -.00002068  00000-0 -11191-3 0  9991,2 53015  53.2165 193.5500 0001342  96.9176 263.1969 15.08831704 66138,6917.906,95.438,540.699,538.842,0.0
53015.0,STARLINK-4262,PAYLOAD,2023-09-16 02:50:47,15.08856402,0.0001334,53.2168,189.387,103.5197,256.5944,0.00064563,0.00010007,0.0,0 STARLINK-4262,1 53015U 22076AF  23259.11860628  .00010007  00000-0  64563-3 0  9999,2 53015  53.2168 189.3870 0001334 103.5197 256.5944 15.08856402 66741,6917.83,95.437,540.618,538.772,0.0
53015.0,STARLINK-4262,PAYLOAD,2023-09-16 06:01:33,15.08868611,0.0001338,53.2167,188.792,104.485,255.629,0.0011151,0.00017517,0.0,0 STARLINK-4262,1 53015U 22076AF  23259.25108508  .00017517  00000-0  11151-2 0  9993,2 53015  53.2167 188.7920 0001338 104.4850 255.6290 15.08868611 66298,6917.793,95.436,540.584,538.732,0.0
53015.0,STARLINK-4262,PAYLOAD,2023-09-17 02:41:34,15.0884858,0.0001176,53.2157,184.9217,114.2445,245.867,0.00031497,4.73e-05,0.0,0 STARLINK-4262,1 53015U 22076AF  23260.11220582  .00004730  00000-0  31497-3 0  9996,2 53015  53.2157 184.9217 0001176 114.2445 245.8670 15.08848580 66895,6917.854,95.437,540.533,538.906,0.0
53015.0,STARLINK-4262,PAYLOAD,2023-09-17 04:16:57,15.08850204,0.0001204,53.2161,184.6276,107.7948,252.3176,0.00047295,7.249e-05,0.0,0 STARLINK-4262,1 53015U 22076AF  23260.17844657  .00007249  00000-0  47295-3 0  9998,2 53015  53.2161 184.6276 0001204 107.7948 252.3176 15.08850204 66439,6917.849,95.437,540.547,538.881,0.0
53015.0,STARLINK-4262,PAYLOAD,2023-09-18 04:07:44,15.08861552,0.000133,53.2164,180.1678,94.119,265.9954,0.00079774,0.00012438,0.0,0 STARLINK-4262,1 53015U 22076AF  23261.17204383  .00012438  00000-0  79774-3 0  9998,2 53015  53.2164 180.1678 0001330  94.1190 265.9954 15.08861552 67058,6917.815,95.436,540.6,538.759,0.0
53015.0,STARLINK-4262,PAYLOAD,2023-09-18 18:26:13,15.08846668,0.0001596,53.2162,177.4927,91.2868,268.8307,0.00033061,4.979e-05,0.0,0 STARLINK-4262,1 53015U 22076AF  23261.76820860  .00004979  00000-0  33061-3 0  9997,2 53015  53.2162 177.4927 0001596  91.2868 268.8307 15.08846668 67141,6917.86,95.437,540.829,538.621,0.0
53015.0,STARLINK-4262,PAYLOAD,2023-09-20 00:38:32,15.08853362,0.0001654,53.2161,171.8427,94.9672,265.1509,0.00031475,4.727e-05,0.0,0 STARLINK-4262,1 53015U 22076AF  23263.02676214  .00004727  00000-0  31475-3 0  9998,2 53015  53.2161 171.8427 0001654  94.9672 265.1509 15.08853362 67335,6917.84,95.437,540.849,538.56,0.0
53015.0,STARLINK-4262,PAYLOAD,2023-09-20 18:07:47,15.08832301,0.0001593,53.2157,168.5714,85.7016,274.4158,-5.3185e-05,-1.134e-05,0.0,0 STARLINK-4262,1 53015U 22076AF  23263.75541241 -.00001134  00000-0 -53185-4 0  9993,2 53015  53.2157 168.5714 0001593  85.7016 274.4158 15.08832301 67449,6917.904,95.438,540.871,538.667,0.0
53015.0,STARLINK-4262,PAYLOAD,2023-09-20 21:18:34,15.08825494,0.0001393,53.2157,167.9763,96.5627,263.5524,-0.00019832,-3.442e-05,0.0,0 STARLINK-4262,1 53015U 22076AF  23263.88789466 -.00003442  00000-0 -19832-3 0  9994,2 53015  53.2157 167.9763 0001393  96.5627 263.5524 15.08825494 66992,6917.925,95.438,540.753,538.826,0.0
53015.0,STARLINK-4262,PAYLOAD,2023-09-21 02:04:43,15.08828389,0.0001364,53.2162,167.085,96.1792,263.9356,-8.0361e-05,-1.566e-05,0.0,0 STARLINK-4262,1 53015U 22076AF  23264.08661780 -.00001566  00000-0 -80361-4 0  9996,2 53015  53.2162 167.0850 0001364  96.1792 263.9356 15.08828389 67021,6917.916,95.438,540.724,538.837,0.0
53015.0,STARLINK-4262,PAYLOAD,2023-09-21 21:09:21,15.08838756,0.0001152,53.2158,163.5159,89.8812,270.2312,8.8807e-05,1.126e-05,0.0,0 STARLINK-4262,1 53015U 22076AF  23264.88149637  .00001126  00000-0  88807-4 0  9999,2 53015  53.2158 163.5159 0001152  89.8812 270.2312 15.08838756 67141,6917.884,95.438,540.546,538.952,0.0
53015.0,STARLINK-4262,PAYLOAD,2023-09-22 00:20:07,15.08844223,0.0001203,53.216,162.9227,88.7236,271.3894,0.0002023,2.934e-05,0.0,0 STARLINK-4262,1 53015U 22076AF  23265.01397442  .00002934  00000-0  20230-3 0  9997,2 53015  53.2160 162.9227 0001203  88.7236 271.3894 15.08844223 67635,6917.867,95.437,540.565,538.9,0.0
53015.0,STARLINK-4262,PAYLOAD,2023-09-22 17:49:22,15.08836142,0.0001303,53.217,159.6543,90.0741,270.04,0.00028831,4.303e-05,0.0,0 STARLINK-4262,1 53015U 22076AF  23265.74262108  .00004303  00000-0  28831-3 0  9994,2 53015  53.2170 159.6543 0001303  90.0741 270.0400 15.08836142 67740,6917.892,95.438,540.659,538.856,0.0
53015.0,STARLINK-4262,PAYLOAD,2023-09-22 21:00:08,15.08839572,0.0001156,53.2172,159.0604,85.7681,274.3444,0.00029017,4.333e-05,0.0,0 STARLINK-4262,1 53015U 22076AF  23265.87509905  .00004333  00000-0  29017-3 0  9997,2 53015  53.2172 159.0604 0001156  85.7681 274.3444 15.08839572 67299,6917.882,95.438,540.546,538.947,0.0
53015.0,STARLINK-4262,PAYLOAD,2023-09-23 00:10:54,15.08847192,0.0001273,53.2176,158.4657,89.9592,270.1547,0.00039352,5.982e-05,0.0,0 STARLINK-4262,1 53015U 22076AF  23266.00757524  .00005982  00000-0  39352-3 0  9999,2 53015  53.2176 158.4657 0001273  89.9592 270.1547 15.08847192 67780,6917.858,95.437,540.604,538.843,0.0
53015.0,STARLINK-4262,PAYLOAD,2023-09-23 03:21:40,15.0884885,0.0001311,53.2176,157.871,91.1091,269.0052,0.00038374,5.826e-05,0.0,0 STARLINK-4262,1 53015U 22076AF  23266.14005342  .00005826  00000-0  38374-3 0  9998,2 53015  53.2176 157.8710 0001311  91.1091 269.0052 15.08848850 67336,6917.853,95.437,540.625,538.811,0.0
53015.0,STARLINK-4262,PAYLOAD,2023-09-24 01:37:04,15.08843003,0.0001321,53.2166,153.707,95.6686,264.4457,4.7144e-05,4.63e-06,0.0,0 STARLINK-4262,1 53015U 22076AF  23267.06741703  .00000463  00000-0  47144-4 0  9996,2 53015  53.2166 153.7070 0001321  95.6686 264.4457 15.08843003 67949,6917.871,95.437,540.65,538.822,0.0
53015.0,STARLINK-4262,PAYLOAD,2023-09-24 22:17:05,15.08839665,0.0001176,53.2163,149.8303,65.642,294.4695,8.1928e-05,1.016e-05,0.0,0 STARLINK-4262,1 53015U 22076AF  23267.92853955  .00001016  00000-0  81928-4 0  9997,2 53015  53.2163 149.8303 0001176  65.6420 294.4695 15.08839665 67601,6917.881,95.438,540.56,538.933,0.0
53015.0,STARLINK-4262,PAYLOAD,2023-09-25 09:24:47,15.08852027,0.0001308,53.2167,147.7569,87.2972,272.817,0.00013651,1.886e-05,0.0,0 STARLINK-4262,1 53015U 22076AF  23268.39221331  .00001886  00000-0  13651-3 0  9998,2 53015  53.2167 147.7569 0001308  87.2972 272.8170 15.08852027 68140,6917.844,95.437,540.613,538.804,0.0
53015.0,STARLINK-4262,PAYLOAD,2023-09-25 22:07:52,15.08855514,0.0001404,53.2164,145.3794,85.7682,274.347,0.00036584,5.542e-05,0.0,0 STARLINK-4262,1 53015U 22076AF  23268.92213230  .00005542  00000-0  36584-3 0  9999,2 53015  53.2164 145.3794 0001404  85.7682 274.3470 15.08855514 67759,6917.833,95.437,540.669,538.727,0.0
53015.0,STARLINK-4262,PAYLOAD,2023-09-26 01:18:38,15.08864119,0.0001351,53.2163,144.782,91.9856,268.1291,0.0005011,7.701e-05,0.0,0 STARLINK-4262,1 53015U 22076AF  23269.05460762  .00007701  00000-0  50110-3 0  9998,2 53015  53.2163 144.7820 0001351  91.9856 268.1291 15.08864119 67779,6917.807,95.436,540.606,538.737,0.0
53015.0,STARLINK-4262,PAYLOAD,2023-09-26 20:23:17,15.08832193,0.0001717,53.2167,141.2165,82.4771,277.6416,-9.8562e-05,-1.856e-05,0.0,0 STARLINK-4262,1 53015U 22076AF  23269.84950404 -.00001856  00000-0 -98562-4 0  9993,2 53015  53.2167 141.2165 0001717  82.4771 277.6416 15.08832193 68361,6917.904,95.438,540.957,538.581,0.0
